COSMOS 2532 (RODNIK-S *)
1 43753U 18097C   26204.32825363 -.00000002  00000+0 -86930-4 0  9996
2 43753  82.5122 199.6907 0017632 343.0000  17.0487 12.42910549346764
MINXSS-2                
1 43758U 18099A   26204.15895577  .00044319  00000+0  80786-3 0  9997
2 43758  97.4514 281.5580 0008892 135.7312 224.4651 15.49293278419690
SIRION PATHFINDER-2     
1 43759U 18099B   26204.11938092  .00003743  00000+0  20479-3 0  9993
2 43759  97.4236 252.3249 0009296 164.7022 195.4493 15.14823429418069
AISTECHSAT 2            
1 43768U 18099L   26204.07075357  .00005841  00000+0  30940-3 0  9999
2 43768  97.4277 251.3226 0005419 156.0261 204.1225 15.15772122417716
FOX-1CLIFF (AO-95)      
1 43770U 18099N   26204.11741777  .00012936  00000+0  48430-3 0  9999
2 43770  97.4362 264.2441 0007956 208.6564 151.4239 15.27399464418700
RANGE-A                 
1 43773U 18099R   26204.07718998  .00004396  00000+0  24782-3 0  9991
2 43773  97.3951 245.6085 0009288 214.1641 145.8994 15.13654631417924
SNUSAT-2                
1 43782U 18099AA  26204.09635017  .00009272  00000+0  40436-3 0  9995
2 43782  97.4040 256.9356 0010998 161.2710 198.8933 15.22330753418499
SNUGLITE                
1 43784U 18099AC  26204.10665467  .00013311  00000+0  49116-3 0  9994
2 43784  97.3847 258.0460 0004248 140.0295 220.1258 15.27889197418808
ITASAT                  
1 43786U 18099AE  26204.11473472  .00006774  00000+0  32216-3 0  9998
2 43786  97.4011 254.9146 0011395 219.6719 140.3683 15.19452558418369
EAGLET-I                
1 43790U 18099AJ  26204.09528490  .00003947  00000+0  22585-3 0  9998
2 43790  97.4211 252.8137 0010179 213.7981 146.2602 15.13175372417767
ESEO                    
1 43792U 18099AL  26204.10012466  .00001324  00000+0  99050-4 0  9992
2 43792  97.3964 239.9493 0011309 202.4336 157.6398 15.04344786417203
THEA                    
1 43796U 18099AQ  26204.17205471  .00019672  00000+0  55940-3 0  9997
2 43796  97.4422 274.2403 0008611 149.2695 210.9054 15.36153177418219
ASTROCAST 0.1           
1 43798U 18099AS  26204.20255672  .00043939  00000+0  73076-3 0  9994
2 43798  97.4364 283.8849 0005194 106.9007 253.2815 15.51920970420012
JY1SAT (JO-97)          
1 43803U 18099AX  26204.16369215  .00018579  00000+0  55333-3 0  9993
2 43803  97.4110 267.1455 0007337 134.6485 225.5357 15.34719584419148
SUOMI-100               
1 43804U 18099AY  26204.27046856  .00012971  00000+0  45960-3 0  9994
2 43804  97.4166 264.5443 0011201 146.1904 214.0052 15.29177789418937
CENTAURI-1              
1 43809U 18099BD  26204.10020271  .00005716  00000+0  29462-3 0  9992
2 43809  97.4201 255.0514 0013721 196.1944 163.8853 15.16681081417945
GLOBAL-2                
1 43812U 18099BG  26204.08718091  .00002709  00000+0  17579-3 0  9992
2 43812  97.3548 239.1082 0006947  46.1859 313.9944 15.08860752417322
SEAHAWK-1               
1 43820U 18099BQ  26204.13894863  .00008804  00000+0  37317-3 0  9993
2 43820  97.3941 256.0847 0008690 171.0061 189.1334 15.23334709418002
SAUDISAT 5A             
1 43831U 18102A   26204.24297537  .00005738  00000+0  21005-3 0  9997
2 43831  97.3047 265.1323 0009614  17.3630 342.7937 15.28380771421186
SAUDISAT 5B             
1 43833U 18102C   26204.32143219  .00005374  00000+0  19542-3 0  9994
2 43833  97.3157 268.3445 0010415  18.4349 341.7266 15.28621150421318
ISAT                    
1 43879U 18111D   26203.81874626  .00144774  00000+0  10755-2 0  9994
2 43879  97.5842 141.9701 0008658 127.1758 233.0296 15.72361141416758
UWE-4                   
1 43880U 18111E   26203.33377656  .00035708  00000+0  67878-3 0  9999
2 43880  97.5824 133.3991 0007416 169.0004 191.1409 15.48148910416217
D-STAR ONE (SPARROW)    
1 43881U 18111F   26202.82239782  .00335068  42557-4  12455-2 0  9990
2 43881  97.6061 147.2939 0009272 136.2129 223.9879 15.87961081416843
JILIN-1 09              
1 43943U 19005B   26204.23996546  .00004088  00000+0  18867-3 0  9998
2 43943  97.4739 298.9022 0001569  15.7377 344.3907 15.20789698414629
JILIN-1 10              
1 43946U 19005E   26204.25945539  .00005574  00000+0  21894-3 0  9994
2 43946  97.4791 303.0745 0009251 144.0774 216.1088 15.26072110414810
EGYPTSAT-A (MISRSAT-A)  
1 44047U 19008A   26204.29832409  .00000690  00000+0  11695-3 0  9997
2 44047  98.0174 268.5731 0001814  91.3919 268.7496 14.72343199398553
EMISAT                  
1 44078U 19018A   26204.32362975  .00000119  00000+0  47873-4 0  9996
2 44078  98.4628 262.9208 0019694 108.3580 251.9754 14.43651632385278
JILIN-1 GAOFEN 3A       
1 44312U 19032C   26204.25041781  .00012461  00000+0  38820-3 0  9998
2 44312  44.9737 158.3456 0005463 161.8232 198.2849 15.33327786393374
WT 1B                   
1 44316U 19032G   26204.23286155  .00008403  00000+0  31367-3 0  9996
2 44316  44.9714 224.0854 0008215  88.0427 272.1397 15.27828190392591
