OBJECT_NAME,OBJECT_ID,EPOCH,MEAN_MOTION,ECCENTRICITY,INCLINATION,RA_OF_ASC_NODE,ARG_OF_PERICENTER,MEAN_ANOMALY,EPHEMERIS_TYPE,CLASSIFICATION_TYPE,NORAD_CAT_ID,ELEMENT_SET_NO,REV_AT_EPOCH,BSTAR,MEAN_MOTION_DOT,MEAN_MOTION_DDOT
COSMOS 2532 (RODNIK-S 18),2018-097C,2026-07-23T07:52:41.113632,12.42910549,.00176321,82.5122,199.6907,343.0000,17.0487,0,U,43753,999,34676,-.86929522E-4,-.2E-7,0
MINXSS-2,2018-099A,2026-07-23T03:48:53.778528,15.49293278,.00088927,97.4514,281.5580,135.7312,224.4651,0,U,43758,999,41969,.80785719E-3,.44319E-3,0
SIRION PATHFINDER-2,2018-099B,2026-07-23T02:51:54.511488,15.14823429,.00092966,97.4236,252.3249,164.7022,195.4493,0,U,43759,999,41806,.20478784E-3,.3743E-4,0
AISTECHSAT 2,2018-099L,2026-07-23T01:41:53.108448,15.15772122,.00054191,97.4277,251.3226,156.0261,204.1225,0,U,43768,999,41771,.30939535E-3,.5841E-4,0
FOX-1CLIFF (AO-95),2018-099N,2026-07-23T02:49:04.895328,15.27399464,.00079561,97.4362,264.2441,208.6564,151.4239,0,U,43770,999,41870,.48430392E-3,.12936E-3,0
RANGE-A,2018-099R,2026-07-23T01:51:09.214272,15.13654631,.00092885,97.3951,245.6085,214.1641,145.8994,0,U,43773,999,41792,.24782383E-3,.4396E-4,0
SNUSAT-2,2018-099AA,2026-07-23T02:18:44.654688,15.22330753,.00109981,97.4040,256.9356,161.2710,198.8933,0,U,43782,999,41849,.40435785E-3,.9272E-4,0
SNUGLITE,2018-099AC,2026-07-23T02:33:34.963488,15.27889197,.00042487,97.3847,258.0460,140.0295,220.1258,0,U,43784,999,41880,.4911608E-3,.13311E-3,0
ITASAT,2018-099AE,2026-07-23T02:45:13.079808,15.19452558,.00113959,97.4011,254.9146,219.6719,140.3683,0,U,43786,999,41836,.32216442E-3,.6774E-4,0
EAGLET-I,2018-099AJ,2026-07-23T02:17:12.615360,15.13175372,.00101793,97.4211,252.8137,213.7981,146.2602,0,U,43790,999,41776,.22584741E-3,.3947E-4,0
ESEO,2018-099AL,2026-07-23T02:24:10.770624,15.04344786,.0011309,97.3964,239.9493,202.4336,157.6398,0,U,43792,999,41720,.99050429E-4,.1324E-4,0
THEA,2018-099AQ,2026-07-23T04:07:45.526944,15.36153177,.00086111,97.4422,274.2403,149.2695,210.9054,0,U,43796,999,41821,.55940118E-3,.19672E-3,0
ASTROCAST 0.1,2018-099AS,2026-07-23T04:51:40.900608,15.51920970,.00051949,97.4364,283.8849,106.9007,253.2815,0,U,43798,999,42001,.73076182E-3,.43939E-3,0
JY1SAT (JO-97),2018-099AX,2026-07-23T03:55:43.001760,15.34719584,.00073375,97.4110,267.1455,134.6485,225.5357,0,U,43803,999,41914,.55333298E-3,.18579E-3,0
SUOMI-100,2018-099AY,2026-07-23T06:29:28.483584,15.29177789,.0011201,97.4166,264.5443,146.1904,214.0052,0,U,43804,999,41893,.4595968E-3,.12971E-3,0
CENTAURI-1,2018-099BD,2026-07-23T02:24:17.514144,15.16681081,.0013721,97.4201,255.0514,196.1944,163.8853,0,U,43809,999,41794,.29462178E-3,.5716E-4,0
GLOBAL-2,2018-099BG,2026-07-23T02:05:32.430624,15.08860752,.00069472,97.3548,239.1082,46.1859,313.9944,0,U,43812,999,41732,.17578532E-3,.2709E-4,0
SEAHAWK-1,2018-099BQ,2026-07-23T03:20:05.161632,15.23334709,.00086909,97.3941,256.0847,171.0061,189.1334,0,U,43820,999,41800,.37316749E-3,.8804E-4,0
SAUDISAT 5A,2018-102A,2026-07-23T05:49:53.071968,15.28380771,.00096148,97.3047,265.1323,17.3630,342.7937,0,U,43831,999,42118,.21004644E-3,.5738E-4,0
SAUDISAT 5B,2018-102C,2026-07-23T07:42:51.741216,15.28621150,.00104155,97.3157,268.3445,18.4349,341.7266,0,U,43833,999,42131,.19542211E-3,.5374E-4,0
ISAT,2018-111D,2026-07-22T19:38:59.676864,15.72361141,.00086581,97.5842,141.9701,127.1758,233.0296,0,U,43879,999,41675,.10755185E-2,.144774E-2,0
UWE-4,2018-111E,2026-07-22T08:00:38.294784,15.48148910,.00074165,97.5824,133.3991,169.0004,191.1409,0,U,43880,999,41621,.6787843E-3,.35708E-3,0
D-STAR ONE (SPARROW),2018-111F,2026-07-21T19:44:15.171648,15.87961081,.00092721,97.6061,147.2939,136.2129,223.9879,0,U,43881,999,41684,.12455259E-2,.335068E-2,.42556826E-4
JILIN-1 09,2019-005B,2026-07-23T05:45:33.015744,15.20789698,.00015697,97.4739,298.9022,15.7377,344.3907,0,U,43943,999,41462,.18866744E-3,.4088E-4,0
JILIN-1 10,2019-005E,2026-07-23T06:13:36.945696,15.26072110,.00092514,97.4791,303.0745,144.0774,216.1088,0,U,43946,999,41481,.21894018E-3,.5574E-4,0
EGYPTSAT-A (MISRSAT-A),2019-008A,2026-07-23T07:09:35.201376,14.72343199,.00018141,98.0174,268.5731,91.3919,268.7496,0,U,44047,999,39855,.11695049E-3,.69E-5,0
EMISAT,2019-018A,2026-07-23T07:46:01.610400,14.43651632,.00196947,98.4628,262.9208,108.3580,251.9754,0,U,44078,999,38527,.47872681E-4,.119E-5,0
JILIN-1 GAOFEN 3A,2019-032C,2026-07-23T06:00:36.098784,15.33327786,.0005463,44.9737,158.3456,161.8232,198.2849,0,U,44312,999,39337,.38820026E-3,.12461E-3,0
WT 1B,2019-032G,2026-07-23T05:35:19.237920,15.27828190,.00082154,44.9714,224.0854,88.0427,272.1397,0,U,44316,999,39259,.31366608E-3,.8403E-4,0
